CCSDS_OMM_VERS = 2.0
CREATION_DATE  = 
ORIGINATOR     = 

OBJECT_NAME    = STARLINK-36110
OBJECT_ID      = 2025-286W
CENTER_NAME    = EARTH
REF_FRAME      = TEME
TIME_SYSTEM    = UTC
MEAN_ELEMENT_THEORY = SGP/SGP4

EPOCH          = 2025-12-14T06:00:02.999808
MEAN_MOTION    = 15.95317332
ECCENTRICITY   = .00009424
INCLINATION    = 53.1568
RA_OF_ASC_NODE = 42.9699
ARG_OF_PERICENTER = 75.9427
MEAN_ANOMALY   = 105.7506

EPHEMERIS_TYPE = 0
CLASSIFICATION_TYPE = U
NORAD_CAT_ID   = 66945
ELEMENT_SET_NO = 999
REV_AT_EPOCH   = 223
BSTAR          = -.33577574E-2
MEAN_MOTION_DOT = -.1356574E-1
MEAN_MOTION_DDOT = .55039083E-3

CCSDS_OMM_VERS = 2.0
CREATION_DATE  = 
ORIGINATOR     = 

OBJECT_NAME    = STARLINK-36115
OBJECT_ID      = 2025-286X
CENTER_NAME    = EARTH
REF_FRAME      = TEME
TIME_SYSTEM    = UTC
MEAN_ELEMENT_THEORY = SGP/SGP4

EPOCH          = 2025-12-14T06:00:02.999808
MEAN_MOTION    = 15.95388459
ECCENTRICITY   = .00009254
INCLINATION    = 53.1568
RA_OF_ASC_NODE = 42.9665
ARG_OF_PERICENTER = 76.9836
MEAN_ANOMALY   = 106.2898

EPHEMERIS_TYPE = 0
CLASSIFICATION_TYPE = U
NORAD_CAT_ID   = 66946
ELEMENT_SET_NO = 999
REV_AT_EPOCH   = 223
BSTAR          = -.33477918E-2
MEAN_MOTION_DOT = -.1357734E-1
MEAN_MOTION_DDOT = .55164689E-3

CCSDS_OMM_VERS = 2.0
CREATION_DATE  = 
ORIGINATOR     = 

OBJECT_NAME    = STARLINK-36089
OBJECT_ID      = 2025-286Y
CENTER_NAME    = EARTH
REF_FRAME      = TEME
TIME_SYSTEM    = UTC
MEAN_ELEMENT_THEORY = SGP/SGP4

EPOCH          = 2025-12-14T06:00:02.999808
MEAN_MOTION    = 15.95548656
ECCENTRICITY   = .00009566
INCLINATION    = 53.1567
RA_OF_ASC_NODE = 42.9597
ARG_OF_PERICENTER = 78.6263
MEAN_ANOMALY   = 108.0175

EPHEMERIS_TYPE = 0
CLASSIFICATION_TYPE = U
NORAD_CAT_ID   = 66947
ELEMENT_SET_NO = 999
REV_AT_EPOCH   = 223
BSTAR          = -.33471588E-2
MEAN_MOTION_DOT = -.1369144E-1
MEAN_MOTION_DDOT = .56104536E-3

CCSDS_OMM_VERS = 2.0
CREATION_DATE  = 
ORIGINATOR     = 

OBJECT_NAME    = STARLINK-36116
OBJECT_ID      = 2025-286Z
CENTER_NAME    = EARTH
REF_FRAME      = TEME
TIME_SYSTEM    = UTC
MEAN_ELEMENT_THEORY = SGP/SGP4

EPOCH          = 2025-12-14T06:00:02.999808
MEAN_MOTION    = 15.95477322
ECCENTRICITY   = .00008582
INCLINATION    = 53.1568
RA_OF_ASC_NODE = 42.9626
ARG_OF_PERICENTER = 79.7903
MEAN_ANOMALY   = 105.4017

EPHEMERIS_TYPE = 0
CLASSIFICATION_TYPE = U
NORAD_CAT_ID   = 66948
ELEMENT_SET_NO = 999
REV_AT_EPOCH   = 223
BSTAR          = -.33352335E-2
MEAN_MOTION_DOT = -.1359125E-1
MEAN_MOTION_DDOT = .55317673E-3

CCSDS_OMM_VERS = 2.0
CREATION_DATE  = 
ORIGINATOR     = 

OBJECT_NAME    = STARLINK-36096
OBJECT_ID      = 2025-286AA
CENTER_NAME    = EARTH
REF_FRAME      = TEME
TIME_SYSTEM    = UTC
MEAN_ELEMENT_THEORY = SGP/SGP4

EPOCH          = 2025-12-14T06:00:02.999808
MEAN_MOTION    = 15.95617517
ECCENTRICITY   = .00009244
INCLINATION    = 53.1568
RA_OF_ASC_NODE = 42.9566
ARG_OF_PERICENTER = 77.5159
MEAN_ANOMALY   = 110.6217

EPHEMERIS_TYPE = 0
CLASSIFICATION_TYPE = U
NORAD_CAT_ID   = 66949
ELEMENT_SET_NO = 999
REV_AT_EPOCH   = 223
BSTAR          = -.33561222E-2
MEAN_MOTION_DOT = -.1377823E-1
MEAN_MOTION_DDOT = .56794958E-3

CCSDS_OMM_VERS = 2.0
CREATION_DATE  = 
ORIGINATOR     = 

OBJECT_NAME    = STARLINK-36111
OBJECT_ID      = 2025-286AB
CENTER_NAME    = EARTH
REF_FRAME      = TEME
TIME_SYSTEM    = UTC
MEAN_ELEMENT_THEORY = SGP/SGP4

EPOCH          = 2025-12-14T06:00:02.999808
MEAN_MOTION    = 15.95770213
ECCENTRICITY   = .00009546
INCLINATION    = 53.1568
RA_OF_ASC_NODE = 42.9502
ARG_OF_PERICENTER = 80.3643
MEAN_ANOMALY   = 110.8873

EPHEMERIS_TYPE = 0
CLASSIFICATION_TYPE = U
NORAD_CAT_ID   = 66950
ELEMENT_SET_NO = 999
REV_AT_EPOCH   = 223
BSTAR          = -.3354515E-2
MEAN_MOTION_DOT = -.1388478E-1
MEAN_MOTION_DDOT = .57688783E-3

CCSDS_OMM_VERS = 2.0
CREATION_DATE  = 
ORIGINATOR     = 

OBJECT_NAME    = STARLINK-35999
OBJECT_ID      = 2025-286AC
CENTER_NAME    = EARTH
REF_FRAME      = TEME
TIME_SYSTEM    = UTC
MEAN_ELEMENT_THEORY = SGP/SGP4

EPOCH          = 2025-12-14T06:00:02.999808
MEAN_MOTION    = 15.95850281
ECCENTRICITY   = .00009342
INCLINATION    = 53.1568
RA_OF_ASC_NODE = 42.9466
ARG_OF_PERICENTER = 83.2755
MEAN_ANOMALY   = 109.6382

EPHEMERIS_TYPE = 0
CLASSIFICATION_TYPE = U
NORAD_CAT_ID   = 66951
ELEMENT_SET_NO = 999
REV_AT_EPOCH   = 223
BSTAR          = -.33524726E-2
MEAN_MOTION_DOT = -.1393608E-1
MEAN_MOTION_DDOT = .58125971E-3

CCSDS_OMM_VERS = 2.0
CREATION_DATE  = 
ORIGINATOR     = 

OBJECT_NAME    = STARLINK-36122
OBJECT_ID      = 2025-286AD
CENTER_NAME    = EARTH
REF_FRAME      = TEME
TIME_SYSTEM    = UTC
MEAN_ELEMENT_THEORY = SGP/SGP4

EPOCH          = 2025-12-14T06:00:02.999808
MEAN_MOTION    = 15.95696977
ECCENTRICITY   = .00009453
INCLINATION    = 53.1569
RA_OF_ASC_NODE = 42.9534
ARG_OF_PERICENTER = 80.2363
MEAN_ANOMALY   = 109.4887

EPHEMERIS_TYPE = 0
CLASSIFICATION_TYPE = U
NORAD_CAT_ID   = 66952
ELEMENT_SET_NO = 999
REV_AT_EPOCH   = 223
BSTAR          = -.3353588E-2
MEAN_MOTION_DOT = -.1382664E-1
MEAN_MOTION_DDOT = .5720593E-3

CCSDS_OMM_VERS = 2.0
CREATION_DATE  = 
ORIGINATOR     = 

OBJECT_NAME    = HULIANWANG DIGUI-114
OBJECT_ID      = 2025-287A
CENTER_NAME    = EARTH
REF_FRAME      = TEME
TIME_SYSTEM    = UTC
MEAN_ELEMENT_THEORY = SGP/SGP4

EPOCH          = 2025-12-11T05:43:48.442368
MEAN_MOTION    = 13.68688345
ECCENTRICITY   = .00085506
INCLINATION    = 86.4966
RA_OF_ASC_NODE = 346.7027
ARG_OF_PERICENTER = 209.4482
MEAN_ANOMALY   = 150.6197

EPHEMERIS_TYPE = 0
CLASSIFICATION_TYPE = U
NORAD_CAT_ID   = 66953
ELEMENT_SET_NO = 999
REV_AT_EPOCH   = 32
BSTAR          = .13583638E-4
MEAN_MOTION_DOT = .28E-6
MEAN_MOTION_DDOT = 0

CCSDS_OMM_VERS = 2.0
CREATION_DATE  = 
ORIGINATOR     = 

OBJECT_NAME    = HULIANWANG DIGUI-115
OBJECT_ID      = 2025-287B
CENTER_NAME    = EARTH
REF_FRAME      = TEME
TIME_SYSTEM    = UTC
MEAN_ELEMENT_THEORY = SGP/SGP4

EPOCH          = 2025-12-14T05:39:26.202816
MEAN_MOTION    = 13.68791762
ECCENTRICITY   = .00086673
INCLINATION    = 86.4973
RA_OF_ASC_NODE = 345.6134
ARG_OF_PERICENTER = 199.3224
MEAN_ANOMALY   = 160.7608

EPHEMERIS_TYPE = 0
CLASSIFICATION_TYPE = U
NORAD_CAT_ID   = 66954
ELEMENT_SET_NO = 999
REV_AT_EPOCH   = 73
BSTAR          = .26663231E-4
MEAN_MOTION_DOT = .39E-6
MEAN_MOTION_DDOT = 0

CCSDS_OMM_VERS = 2.0
CREATION_DATE  = 
ORIGINATOR     = 

OBJECT_NAME    = HULIANWANG DIGUI-116
OBJECT_ID      = 2025-287C
CENTER_NAME    = EARTH
REF_FRAME      = TEME
TIME_SYSTEM    = UTC
MEAN_ELEMENT_THEORY = SGP/SGP4

EPOCH          = 2025-12-14T02:08:18.133728
MEAN_MOTION    = 13.68903211
ECCENTRICITY   = .00080818
INCLINATION    = 86.4907
RA_OF_ASC_NODE = 345.6576
ARG_OF_PERICENTER = 193.9217
MEAN_ANOMALY   = 166.1720

EPHEMERIS_TYPE = 0
CLASSIFICATION_TYPE = U
NORAD_CAT_ID   = 66955
ELEMENT_SET_NO = 999
REV_AT_EPOCH   = 71
BSTAR          = .25654516E-4
MEAN_MOTION_DOT = .39E-6
MEAN_MOTION_DDOT = 0

CCSDS_OMM_VERS = 2.0
CREATION_DATE  = 
ORIGINATOR     = 

OBJECT_NAME    = HULIANWANG DIGUI-117
OBJECT_ID      = 2025-287D
CENTER_NAME    = EARTH
REF_FRAME      = TEME
TIME_SYSTEM    = UTC
MEAN_ELEMENT_THEORY = SGP/SGP4

EPOCH          = 2025-12-11T19:45:00.614592
MEAN_MOTION    = 13.69017640
ECCENTRICITY   = .00072845
INCLINATION    = 86.4968
RA_OF_ASC_NODE = 346.4938
ARG_OF_PERICENTER = 195.1574
MEAN_ANOMALY   = 164.9368

EPHEMERIS_TYPE = 0
CLASSIFICATION_TYPE = U
NORAD_CAT_ID   = 66956
ELEMENT_SET_NO = 999
REV_AT_EPOCH   = 40
BSTAR          = .18810541E-4
MEAN_MOTION_DOT = .33E-6
MEAN_MOTION_DDOT = 0

