STARLINK-36110          
1 66945U 25286W   25348.25003472 -.01356574  55039-3 -33578-2 0  9994
2 66945  53.1568  42.9699 0000942  75.9427 105.7506 15.95317332  2238
STARLINK-36115          
1 66946U 25286X   25348.25003472 -.01357734  55165-3 -33478-2 0  9993
2 66946  53.1568  42.9665 0000925  76.9836 106.2898 15.95388459  2236
STARLINK-36089          
1 66947U 25286Y   25348.25003472 -.01369144  56105-3 -33472-2 0  9991
2 66947  53.1567  42.9597 0000956  78.6263 108.0175 15.95548656  2232
STARLINK-36116          
1 66948U 25286Z   25348.25003472 -.01359125  55318-3 -33352-2 0  9992
2 66948  53.1568  42.9626 0000858  79.7903 105.4017 15.95477322  2238
STARLINK-36096          
1 66949U 25286AA  25348.25003472 -.01377823  56795-3 -33561-2 0  9990
2 66949  53.1568  42.9566 0000924  77.5159 110.6217 15.95617517  2237
STARLINK-36111          
1 66950U 25286AB  25348.25003472 -.01388478  57689-3 -33545-2 0  9995
2 66950  53.1568  42.9502 0000954  80.3643 110.8873 15.95770213  2235
STARLINK-35999          
1 66951U 25286AC  25348.25003472 -.01393608  58126-3 -33525-2 0  9992
2 66951  53.1568  42.9466 0000934  83.2755 109.6382 15.95850281  2234
STARLINK-36122          
1 66952U 25286AD  25348.25003472 -.01382664  57206-3 -33536-2 0  9993
2 66952  53.1569  42.9534 0000945  80.2363 109.4887 15.95696977  2234
HULIANWANG DIGUI-114    
1 66953U 25287A   25345.23875512  .00000028  00000+0  13584-4 0  9999
2 66953  86.4966 346.7027 0008550 209.4482 150.6197 13.68688345   322
HULIANWANG DIGUI-115    
1 66954U 25287B   25348.23571994  .00000039  00000+0  26663-4 0  9994
2 66954  86.4973 345.6134 0008667 199.3224 160.7608 13.68791762   730
HULIANWANG DIGUI-116    
1 66955U 25287C   25348.08909877  .00000039  00000+0  25655-4 0  9993
2 66955  86.4907 345.6576 0008081 193.9217 166.1720 13.68903211   717
HULIANWANG DIGUI-117    
1 66956U 25287D   25345.82292378  .00000033  00000+0  18811-4 0  9994
2 66956  86.4968 346.4938 0007284 195.1574 164.9368 13.69017640   403
